FLOCK 3P-52             
1 42030U 17008CL  17168.60529561  .00001873  00000-0  83786-4 0  9997
2 42030  97.4961 229.9827 0007707 198.3815 161.7144 15.22537942 18544
FLOCK 3P-46             
1 42031U 17008CM  17168.60165521  .00003031  00000-0  13354-3 0  9991
2 42031  97.4957 229.9850 0007598 199.3494 160.7455 15.22577713 18609
FLOCK 3P-47             
1 42032U 17008CN  17168.60158372  .00001252  00000-0  57007-4 0  9995
2 42032  97.4959 229.9852 0007568 200.2225 159.8713 15.22544582 18429
FLOCK 3P-44             
1 42033U 17008CP  17168.59671515  .00004496  00000-0  19648-3 0  9994
2 42033  97.4959 229.9933 0007398 201.7557 158.3367 15.22589679 17171
FLOCK 3P-64             
1 42034U 17008CQ  17168.59631558  .00002630  00000-0  11623-3 0  9991
2 42034  97.4955 229.9882 0007366 201.7080 158.3845 15.22597736 18598
FLOCK 3P-63             
1 42035U 17008CR  17168.59556528  .00004127  00000-0  18054-3 0  9993
2 42035  97.4953 229.9874 0007367 201.9771 158.1150 15.22603723 16564
FLOCK 3P-62             
1 42036U 17008CS  17168.52507192  .00003059  00000-0  13418-3 0  9992
2 42036  97.4955 229.9302 0007319 203.4550 156.6353 15.22720640 17750
FLOCK 3P-38             
1 42037U 17008CT  17168.59319702  .00001250  00000-0  56859-4 0  9996
2 42037  97.4957 229.9903 0007037 202.8912 157.2012 15.22598719 18549
FLOCK 3P-39             
1 42038U 17008CU  17168.59207581  .00001545  00000-0  69459-4 0  9995
2 42038  97.4954 229.9878 0007234 202.9828 157.1085 15.22633140 18495
FLOCK 3P-15             
1 42039U 17008CV  17168.52865570  .00004043  00000-0  17709-3 0  9993
2 42039  97.4954 229.9238 0007151 202.3654 157.7272 15.22573844 17762
FLOCK 3P-13             
1 42040U 17008CW  17168.59048253  .00002522  00000-0  11148-3 0  9994
2 42040  97.4956 229.9960 0007045 202.8010 157.2915 15.22628401 17760
FLOCK 3P-55             
1 42041U 17008CX  17168.57759793  .00001372  00000-0  61735-4 0  9991
2 42041  97.4958 230.0109 0006679 207.4810 152.6075 15.22805449 18601
FLOCK 3P-56             
1 42042U 17008CY  17168.57903982  .00003006  00000-0  13158-3 0  9994
2 42042  97.4951 230.0033 0006785 205.9631 154.1265 15.22810720 18395
FLOCK 3P-81             
1 42043U 17008CZ  17168.61471172  .00002058  00000-0  91779-4 0  9993
2 42043  97.4979 230.0100 0008228 185.1834 174.9318 15.22535383 17789
FLOCK 3P-87             
1 42044U 17008DA  17168.16242601  .00003564  00000-0  15682-3 0  9998
2 42044  97.4975 229.5361 0008471 183.9501 176.1670 15.22494650 17860
FLOCK 3P-29             
1 42045U 17008DB  17168.42635926  .00003630  00000-0  15964-3 0  9991
2 42045  97.4958 229.7638 0008255 180.0204 180.1034 15.22504124 17754
FLOCK 3P-82             
1 42046U 17008DC  17168.42722609  .00004640  00000-0  20345-3 0  9998
2 42046  97.4975 229.7986 0008615 183.4633 176.6545 15.22453503 17800
FLOCK 3P-78             
1 42047U 17008DD  17168.42454311  .00003897  00000-0  17110-3 0  9990
2 42047  97.4978 229.8030 0008480 182.8377 177.2812 15.22508201 17735
FLOCK 3P-74             
1 42048U 17008DE  17168.42941274  .00003041  00000-0  13445-3 0  9998
2 42048  97.4980 229.8007 0008705 183.9145 176.2024 15.22442642 17738
FLOCK 3P-31             
1 42049U 17008DF  17168.42953866  .00004787  00000-0  20993-3 0  9993
2 42049  97.4957 229.7615 0008374 180.9069 179.2153 15.22434966 17197
FLOCK 3P-83             
1 42050U 17008DG  17168.42938733  .00003971  00000-0  17485-3 0  9997
2 42050  97.4976 229.7953 0008618 184.2066 175.9099 15.22396058 18462
FLOCK 3P-72             
1 42051U 17008DH  17168.61422322  .00002529  00000-0  11190-3 0  9996
2 42051  97.4982 230.0150 0008170 181.8040 178.3168 15.22588485 16089
LEMUR-2-REDFERN-GOES    
1 42059U 98067LA  17168.58280425  .00013281  00000-0  18001-3 0  9995
2 42059  51.6401  34.5001 0007170 298.4887  61.5383 15.57995992 16074
TECHEDSAT 5             
1 42066U 98067LB  17168.60786154  .00218460  00000-0  13369-2 0  9993
2 42066  51.6334  28.6178 0004931 242.1548 117.8952 15.76126519 15885
LEMUR-2-TRUTNA          
1 42067U 98067LC  17168.60446042  .00029115  00000-0  36247-3 0  9991
2 42067  51.6398  33.8938 0006590 293.8878  66.1424 15.59666611 15917
LEMUR-2-AUSTINTACIOUS   
1 42068U 98067LD  17168.57962044  .00016736  00000-0  22243-3 0  9999
2 42068  51.6400  34.4775 0006570 297.2274  62.8048 15.58309878 16008
LEMUR-2-TRUTNAHD        
1 42069U 98067LE  17168.58059782  .00010806  00000-0  14718-3 0  9997
2 42069  51.6408  34.4879 0006481 295.8435  64.1889 15.58103455 16052
SOMP2                   
1 42700U 98067LH  17168.52289294  .00014547  00000-0  21407-3 0  9995
2 42700  51.6408  36.3446 0005947 329.0978  30.9663 15.55679939  4996
HAVELSAT                
1 42701U 98067LJ  17168.52352318  .00013296  00000-0  19680-3 0  9994
2 42701  51.6409  36.3492 0005927 330.2073  29.8581 15.55609498  4985
COLUMBIA                
1 42702U 98067LK  17168.58165418  .00026647  00000-0  37742-3 0  9997
2 42702  51.6406  35.9876 0005905 320.9701  39.0864 15.56271623  4921
SGSAT                   
1 42703U 98067LL  17168.52106836  .00022573  00000-0  32445-3 0  9990
2 42703  51.6406  36.3330 0002017 262.1339  97.9423 15.55988491  4906
CXBN-2                  
1 42704U 98067LM  17168.52647692  .00012873  00000-0  19170-3 0  9993
2 42704  51.6409  36.3693 0001624 267.5812  92.4993 15.55487517  4916
ICECUBE                 
1 42705U 98067LN  17168.52698506  .00018399  00000-0  27035-3 0  9992
2 42705  51.6411  36.3734 0001632 273.2857  86.7948 15.55533410  4974
PHOENIX                 
1 42706U 98067LP  17168.52369807  .00014065  00000-0  20750-3 0  9995
2 42706  51.6413  36.3517 0000907 309.1838  50.9073 15.55654488  4902
X-CUBESAT               
1 42707U 98067LQ  17168.52402731  .00013175  00000-0  19496-3 0  9996
2 42707  51.6410  36.3532 0000986 308.1379  51.9523 15.55636573  4897
QBEE50-LTU-OC           
1 42708U 98067LR  17168.52460619  .00013487  00000-0  19967-3 0  9995
2 42708  51.6408  36.3570 0001074 307.8472  52.2422 15.55600475  4856
ALTAIR PATHFINDER       
1 42711U 98067LS  17168.53312638  .00008742  00000-0  13447-3 0  9992
2 42711  51.6408  36.4123 0004052 258.3396 101.7140 15.55075906  4569
SHARC                   
1 42712U 98067LT  17168.53100026  .00007673  00000-0  11851-3 0  9998
2 42712  51.6411  36.3993 0001935 261.9897  98.0875 15.55170701  4800
ZA-AEROSAT              
1 42713U 98067LU  17168.52862607  .00011212  00000-0  16857-3 0  9993
2 42713  51.6409  36.3834 0001872 247.6886 112.3906 15.55378454  4564
LINK                    
1 42714U 98067LV  17168.52878997  .00012893  00000-0  19251-3 0  9990
2 42714  51.6406  36.3839 0002156 252.5838 107.4917 15.55411188  4676
CSUNSAT 1               
1 42715U 98067LW  17168.53131327  .00011548  00000-0  17418-3 0  9990
2 42715  51.6407  36.4003 0004225 246.4250 113.6297 15.55251172  4564
UPSAT                   
1 42716U 98067LX  17168.46144907  .00014810  00000-0  21827-3 0  9995
2 42716  51.6408  36.6849 0004279 333.4065  26.6706 15.55629633  4688
SPACECUBE               
1 42717U 98067LY  17168.52726451  .00012846  00000-0  19124-3 0  9997
2 42717  51.6410  36.3743 0004255 333.0982  26.9788 15.55493485  3934
HOOPOE                  
1 42718U 98067LZ  17168.52676422  .00014250  00000-0  21089-3 0  9994
2 42718  51.6409  36.3715 0004284 331.9712  28.1048 15.55552554  3938
UNSW-ECO                
1 42721U 98067MA  17168.59845518  .00017878  00000-0  26398-3 0  9996
2 42721  51.6408  36.0986 0007373 308.6048  51.4282 15.55399304  3642
NJUST-1                 
1 42722U 98067MB  17168.02234769  .00010631  00000-0  16169-3 0  9990
2 42722  51.6407  39.0013 0007204 308.8481  51.1867 15.55108880  3555
CHALLENGER              
1 42723U 98067MC  17168.60010054  .00014143  00000-0  21181-3 0  9996
2 42723  51.6409  36.1099 0007188 309.9623  50.0736 15.55218869  3621
DUTHSAT                 
1 42724U 98067MD  17168.60003270  .00017584  00000-0  26086-3 0  9990
2 42724  51.6408  36.1095 0006292 311.6525  48.3927 15.55291734  3560
LILACSAT-1              
1 42725U 98067ME  17168.60170512  .00009091  00000-0  13962-3 0  9998
2 42725  51.6411  36.1206 0006200 313.6387  46.4090 15.55056405  3560
NSIGHT-1                
1 42726U 98067MF  17168.60283055  .00006180  00000-0  97679-4 0  9990
2 42726  51.6411  36.1281 0006164 315.4784  44.5711 15.54929231  3557
SNUSAT-1                
1 42727U 98067MG  17168.60211790  .00013139  00000-0  19828-3 0  9999
2 42727  51.6403  36.1217 0007638 270.2915  89.7201 15.55079126  3510
QBITO                   
1 42728U 98067MH  17168.27910158  .00012735  00000-0  19178-3 0  9996
2 42728  51.6410  37.7161 0003342 323.1164  36.9597 15.55188985  3309
AALTO-2                 
1 42729U 98067MJ  17168.60030995  .00013452  00000-0  20203-3 0  9994
2 42729  51.6408  36.1115 0003345 324.2273  35.8494 15.55206641  3365
SUSAT                   
1 42730U 98067MK  17168.02250702  .00014268  00000-0  21421-3 0  9991
2 42730  51.6409  39.0026 0003371 320.0121  40.0622 15.55158286  3267
I-INSPIRE II            
1 42731U 98067ML  17168.02171971  .00015942  00000-0  23759-3 0  9998
2 42731  51.6401  38.9958 0007175 254.3004 105.7196 15.55242096  3311
POLYITAN-2-SAU          
1 42732U 98067MM  17168.53568289  .00013038  00000-0  19565-3 0  9991
2 42732  51.6402  36.4283 0007146 255.8345 104.1852 15.55245561  3399
SNUSAT-1B               
1 42733U 98067MN  17168.60078113  .00011728  00000-0  17722-3 0  9999
2 42733  51.6405  36.1126 0007031 257.3238 102.6967 15.55172045  3405
EXALTA-1                
1 42734U 98067MP  17168.60003476  .00014742  00000-0  22004-3 0  9998
2 42734  51.6405  36.1089 0008776 282.9923  77.0089 15.55258598  3358
AOXIANG-1               
1 42735U 98067MQ  17168.53649601  .00010490  00000-0  15932-3 0  9995
2 42735  51.6409  36.4350 0007903 306.7259  53.3005 15.55160733  4769
